{
  "type": "FeatureCollection",
  "features": [
    {
      "type": "Feature",
      "properties": {
        "norad_id": 34845,
        "name": "COSMOS 2251 DEB",
        "group": "cosmos-2251-debris",
        "lat": 41.77091342365374,
        "lon": -31.543653192092293,
        "alt_km": 750.9040491199867,
        "timestamp": "2025-12-04T17:48:40.560158+00:00",
        "meta_object_name": "COSMOS 2251 DEB",
        "meta_object_id": "1993-036ABP",
        "meta_epoch": "2025-11-28T06:44:43.474272",
        "meta_mean_motion": 14.45815545,
        "meta_eccentricity": 0.00217969,
        "meta_inclination": 74.024,
        "meta_ra_of_asc_node": 175.3373,
        "meta_arg_of_pericenter": 338.6212,
        "meta_mean_anomaly": 21.4033,
        "meta_ephemeris_type": 0,
        "meta_classification_type": "U",
        "meta_norad_cat_id": 34845,
        "meta_element_set_no": 999,
        "meta_rev_at_epoch": 87257,
        "meta_bstar": 0.00025523358,
        "meta_mean_motion_dot": 8.81e-06,
        "meta_mean_motion_ddot": 0,
        "tle_line1": "1 34845U 93036ABP 25332.28105873  .00000881  00000+0  25523-3 0  9990",
        "tle_line2": "2 34845  74.0240 175.3373 0021796 338.6212  21.4033 14.45815545872576"
      },
      "geometry": {
        "type": "Point",
        "coordinates": [
          -31.543653192092293,
          41.77091342365374
        ]
      }
    },
    {
      "type": "Feature",
      "properties": {
        "norad_id": 34846,
        "name": "COSMOS 2251 DEB",
        "group": "cosmos-2251-debris",
        "lat": 35.5468417465479,
        "lon": -71.462862451837,
        "alt_km": 721.2285848848487,
        "timestamp": "2025-12-04T17:48:40.560168+00:00",
        "meta_object_name": "COSMOS 2251 DEB",
        "meta_object_id": "1993-036ABQ",
        "meta_epoch": "2025-12-03T15:05:39.836256",
        "meta_mean_motion": 14.47111801,
        "meta_eccentricity": 0.00259036,
        "meta_inclination": 74.031,
        "meta_ra_of_asc_node": 278.8114,
        "meta_arg_of_pericenter": 346.4186,
        "meta_mean_anomaly": 13.6272,
        "meta_ephemeris_type": 0,
        "meta_classification_type": "U",
        "meta_norad_cat_id": 34846,
        "meta_element_set_no": 999,
        "meta_rev_at_epoch": 87272,
        "meta_bstar": 0.0014933673,
        "meta_mean_motion_dot": 5.444e-05,
        "meta_mean_motion_ddot": 0,
        "tle_line1": "1 34846U 93036ABQ 25337.62893329  .00005444  00000+0  14934-2 0  9997",
        "tle_line2": "2 34846  74.0310 278.8114 0025903 346.4186  13.6272 14.47111801872729"
      },
      "geometry": {
        "type": "Point",
        "coordinates": [
          -71.462862451837,
          35.5468417465479
        ]
      }
    },
    {
      "type": "Feature",
      "properties": {
        "norad_id": 34852,
        "name": "COSMOS 2251 DEB",
        "group": "cosmos-2251-debris",
        "lat": 34.175771133266586,
        "lon": -71.10838598385097,
        "alt_km": 754.9103511220246,
        "timestamp": "2025-12-04T17:48:40.560178+00:00",
        "meta_object_name": "COSMOS 2251 DEB",
        "meta_object_id": "1993-036ABW",
        "meta_epoch": "2025-12-02T05:29:46.536576",
        "meta_mean_motion": 14.36991388,
        "meta_eccentricity": 0.0015746,
        "meta_inclination": 74.0326,
        "meta_ra_of_asc_node": 282.3019,
        "meta_arg_of_pericenter": 28.2884,
        "meta_mean_anomaly": 331.9121,
        "meta_ephemeris_type": 0,
        "meta_classification_type": "U",
        "meta_norad_cat_id": 34852,
        "meta_element_set_no": 999,
        "meta_rev_at_epoch": 87383,
        "meta_bstar": 0.00017468,
        "meta_mean_motion_dot": 4.92e-06,
        "meta_mean_motion_ddot": 0,
        "tle_line1": "1 34852U 93036ABW 25336.22901084  .00000492  00000+0  17468-3 0  9991",
        "tle_line2": "2 34852  74.0326 282.3019 0015746  28.2884 331.9121 14.36991388873837"
      },
      "geometry": {
        "type": "Point",
        "coordinates": [
          -71.10838598385097,
          34.175771133266586
        ]
      }
    },
    {
      "type": "Feature",
      "properties": {
        "norad_id": 34854,
        "name": "COSMOS 2251 DEB",
        "group": "cosmos-2251-debris",
        "lat": -57.04238898847424,
        "lon": 20.473452922423927,
        "alt_km": 615.0778374464899,
        "timestamp": "2025-12-04T17:48:40.560188+00:00",
        "meta_object_name": "COSMOS 2251 DEB",
        "meta_object_id": "1993-036ABY",
        "meta_epoch": "2025-12-01T22:02:46.134528",
        "meta_mean_motion": 14.76470003,
        "meta_eccentricity": 0.00662316,
        "meta_inclination": 74.0289,
        "meta_ra_of_asc_node": 179.791,
        "meta_arg_of_pericenter": 293.6475,
        "meta_mean_anomaly": 65.7756,
        "meta_ephemeris_type": 0,
        "meta_classification_type": "U",
        "meta_norad_cat_id": 34854,
        "meta_element_set_no": 999,
        "meta_rev_at_epoch": 71722,
        "meta_bstar": 0.00065989077,
        "meta_mean_motion_dot": 4.729e-05,
        "meta_mean_motion_ddot": 0,
        "tle_line1": "1 34854U 93036ABY 25335.91858952  .00004729  00000+0  65989-3 0  9991",
        "tle_line2": "2 34854  74.0289 179.7910 0066231 293.6475  65.7756 14.76470003717221"
      },
      "geometry": {
        "type": "Point",
        "coordinates": [
          20.473452922423927,
          -57.04238898847424
        ]
      }
    },
    {
      "type": "Feature",
      "properties": {
        "norad_id": 34856,
        "name": "COSMOS 2251 DEB",
        "group": "cosmos-2251-debris",
        "lat": -15.531401524154889,
        "lon": -74.13529606250263,
        "alt_km": 537.3820347487472,
        "timestamp": "2025-12-04T17:48:40.560199+00:00",
        "meta_object_name": "COSMOS 2251 DEB",
        "meta_object_id": "1993-036ACA",
        "meta_epoch": "2025-12-03T19:10:13.988064",
        "meta_mean_motion": 15.05251833,
        "meta_eccentricity": 0.00346135,
        "meta_inclination": 73.9972,
        "meta_ra_of_asc_node": 103.2267,
        "meta_arg_of_pericenter": 241.227,
        "meta_mean_anomaly": 245.1465,
        "meta_ephemeris_type": 0,
        "meta_classification_type": "U",
        "meta_norad_cat_id": 34856,
        "meta_element_set_no": 999,
        "meta_rev_at_epoch": 88977,
        "meta_bstar": 0.0030177118,
        "meta_mean_motion_dot": 0.00043929,
        "meta_mean_motion_ddot": 0,
        "tle_line1": "1 34856U 93036ACA 25337.79877301  .00043929  00000+0  30177-2 0  9995",
        "tle_line2": "2 34856  73.9972 103.2267 0034613 241.2270 245.1465 15.05251833889770"
      },
      "geometry": {
        "type": "Point",
        "coordinates": [
          -74.13529606250263,
          -15.531401524154889
        ]
      }
    },
    {
      "type": "Feature",
      "properties": {
        "norad_id": 34857,
        "name": "COSMOS 2251 DEB",
        "group": "cosmos-2251-debris",
        "lat": 60.78592758518601,
        "lon": -88.75662098745886,
        "alt_km": 722.8125937713612,
        "timestamp": "2025-12-04T17:48:40.560208+00:00",
        "meta_object_name": "COSMOS 2251 DEB",
        "meta_object_id": "1993-036ACB",
        "meta_epoch": "2025-12-03T13:53:25.818720",
        "meta_mean_motion": 14.58726098,
        "meta_eccentricity": 0.00662035,
        "meta_inclination": 74.0144,
        "meta_ra_of_asc_node": 124.2999,
        "meta_arg_of_pericenter": 250.3429,
        "meta_mean_anomaly": 238.0974,
        "meta_ephemeris_type": 0,
        "meta_classification_type": "U",
        "meta_norad_cat_id": 34857,
        "meta_element_set_no": 999,
        "meta_rev_at_epoch": 87767,
        "meta_bstar": 0.0017193547,
        "meta_mean_motion_dot": 8.251e-05,
        "meta_mean_motion_ddot": 0,
        "tle_line1": "1 34857U 93036ACB 25337.57877105  .00008251  00000+0  17194-2 0  9997",
        "tle_line2": "2 34857  74.0144 124.2999 0066203 250.3429 238.0974 14.58726098877675"
      },
      "geometry": {
        "type": "Point",
        "coordinates": [
          -88.75662098745886,
          60.78592758518601
        ]
      }
    },
    {
      "type": "Feature",
      "properties": {
        "norad_id": 34859,
        "name": "COSMOS 2251 DEB",
        "group": "cosmos-2251-debris",
        "lat": -66.01564542398857,
        "lon": -43.78063422596248,
        "alt_km": 532.5297412651689,
        "timestamp": "2025-12-04T17:48:40.560218+00:00",
        "meta_object_name": "COSMOS 2251 DEB",
        "meta_object_id": "1993-036ACD",
        "meta_epoch": "2025-12-03T12:38:16.176768",
        "meta_mean_motion": 15.12289472,
        "meta_eccentricity": 0.00045468,
        "meta_inclination": 74.0347,
        "meta_ra_of_asc_node": 358.7891,
        "meta_arg_of_pericenter": 317.5487,
        "meta_mean_anomaly": 195.1552,
        "meta_ephemeris_type": 0,
        "meta_classification_type": "U",
        "meta_norad_cat_id": 34859,
        "meta_element_set_no": 999,
        "meta_rev_at_epoch": 88219,
        "meta_bstar": 0.0058122279,
        "meta_mean_motion_dot": 0.0010206,
        "meta_mean_motion_ddot": 0,
        "tle_line1": "1 34859U 93036ACD 25337.52657612  .00102060  00000+0  58122-2 0  9992",
        "tle_line2": "2 34859  74.0347 358.7891 0004546 317.5487 195.1552 15.12289472882198"
      },
      "geometry": {
        "type": "Point",
        "coordinates": [
          -43.78063422596248,
          -66.01564542398857
        ]
      }
    }
  ]
}